date:2024-08-30T12:40:38+00:00
validtle:1
satid:46586
launchyear:2020
epoch:24243.03136978
epochday:243
tleage:0
tleclassification:U
active:1
name:STARLINK-1737
meananomly:261.9104
meanmotion:15.0639
rightascension:0.0000
declination:0.0000
semimajoraxis:6925.376399155
altitudeatperigee:546
altitudeatapogee:548
inclination:53.0525
eccentricity:0.0001264
argumentofperigree:98.2028
nickname:STARLINK-1737
idesg:20070BG 
cosparid:2020-070BG
altkm:548.24157667117
velkms:7.5889909509832
velkmh:27320
onumepoch:21556
onumnow:324725.26
otype:1
otypedesc:Low Earth Orbit (LEO)
status:1
timestamp:2024-08-30T00:45:10+00:00
nowjuliandate:2460553.028229
nowepochdate:24243.5282175926
TLE:
STARLINK-1737
1 46586U 20070BG  24243.03136978  .00032477  00000+0  21897-2 0  9991
2 46586  53.0525 135.5525 0001264  98.2028 261.9104 15.06391590215560